#aV2012  6  4  0  0  0.00000000     288 DD+AD WGS84 FIT  NGA
## 1691  86400.00000000   300.00000000 56082 0.0000000000000
+   31     1  2  3  4  5  6  7  8  9 10 11 12 13 14 15 16 17
+         18 19 20 21 22 23 25 26 27 28 29 30 31 32  0  0  0
+          0  0  0  0  0  0  0  0  0  0  0  0  0  0  0  0  0
+          0  0  0  0  0  0  0  0  0  0  0  0  0  0  0  0  0
+          0  0  0  0  0  0  0  0  0  0  0  0  0  0  0  0  0
++         2  2  2  2  2  2  2  2  2  2  2  2  2  2  2  2  2
++         2  2  2  2  2  2  2  2  2  2  2  2  2  2  2  0  0
++         0  0  0  0  0  0  0  0  0  0  0  0  0  0  0  0  0
++         0  0  0  0  0  0  0  0  0  0  0  0  0  0  0  0  0
++         0  0  0  0  0  0  0  0  0  0  0  0  0  0  0  0  0
%c cc cc ccc ccc cccc cccc cccc cccc ccccc ccccc ccccc ccccc
%c cc cc ccc ccc cccc cccc cccc cccc ccccc ccccc ccccc ccccc
%f  0.0000000  0.000000000  0.00000000000  0.000000000000000
%f  0.0000000  0.000000000  0.00000000000  0.000000000000000
%i    0    0    0    0      0      0      0      0         0
%i    0    0    0    0      0      0      0      0         0
/*      NGA, ST. LOUIS,MO.                                  
/*   EPHEMERIS COMPUTED FROM  1 DAYS OF DATA
/*   EPOCHA SMOOTHER  
/* CCCCCCCCCCCCCCCCCCCCCCCCCCCCCCCCCCCCCCCCCCCCCCCCCCCCCCCCC
*  2012  6  4  7 10  0.00000000                                                 
P  1   8033.024562  13971.375216 -21123.788624    259.775912                    
V  1 -26551.848847   3743.914795  -7588.206852      0.017737                    
P  2  16402.584217 -13666.365941  15605.268117    392.510570                    
V  2  20033.952605    132.388116 -21624.424244      0.012667                    
P  3  -9768.904476  24177.001512   3731.257340     57.820545                    
V  3  -2356.669379  -6251.937198  30779.964810      0.050756                    
P  4  25337.108599  -6620.984029   5095.937388    203.892891                    
V  4   7064.930072   2456.703688 -30129.648204      0.115044                    
P  5   4951.366101 -16993.770809  19745.423663   -321.982952                    
V  5  16040.950769  19460.332337  12837.160448     -0.037309                    
P  6 -13939.736653  21037.245226   7886.247696     21.227152                    
V  6    162.188977 -10566.680761  29228.294415     -0.031299                    
P  7  20976.193599   7844.298959  14497.850825     87.397180                    
V  7 -18008.196357   3332.011769  24029.498884      0.035713                    
P  8  26787.898288   1000.804112   2064.967818      1.355516                    
V  8  -2473.950468   1168.374840  32025.063584      0.001079                    
P  9  -3022.539657 -14682.532152 -22484.381168    162.760072                    
V  9  26919.345611  -3388.039812  -1483.989850      0.025829                    
P 10  17537.991525     83.907899  19804.047997    -40.309745                    
V 10  13887.458307  21582.955601 -11841.333811     -0.012517                    
P 11   2111.620587  17159.709674 -20508.171133   -268.112519                    
V 11 -24072.892244   8721.142457   5235.669822     -0.038414                    
P 12  -9621.494576 -23448.626837  -8283.382248     72.651897                    
V 12   7518.225376   7469.279948 -29713.283944      0.020854                    
P 13  10704.866604  10467.036010  21783.630368    203.198826                    
V 13 -13818.401412  24295.288258  -4949.219637     -0.024118                    
P 14 -17628.817637   7510.676041 -18147.582499    204.356645                    
V 14   9519.807814 -21442.859793 -18086.490332      0.008734                    
P 15   1464.653467 -24113.174724 -10799.059901    -91.559617                    
V 15   8032.557867 -11628.182664  27280.824521     -0.001659                    
P 16  -5547.357611  16091.197493  20301.677910   -237.092651                    
V 16 -15237.177932 -20857.684844  12678.707906     -0.012255                    
P 17  17409.095556  -5834.195593 -18926.415170    123.754440                    
V 17  -9236.262518  22726.845422 -15586.905867     -0.028070                    
P 18 -19678.395038 -15245.308886  -9398.118672    198.898783                    
V 18  -4668.956124 -11911.157595  27644.915251      0.018022                    
P 19  -5533.330168  23974.173420  -9510.531734   -271.867724                    
V 19  -8331.755517   9280.178297  28767.241740     -0.037159                    
P 20  13723.679067  22356.229966  -4541.629293     63.686577                    
V 20  -6326.084681  -2073.942946 -30312.136758      0.002118                    
P 21 -23971.987309  -5752.762453  11098.768050   -228.021122                    
V 21  12869.081027  -4047.948069  26330.632496     -0.024420                    
P 22 -18270.790641   -885.148545 -19114.167612    144.257420                    
V 22 -13109.943386 -21049.802405  13250.367881      0.000531                    
P 23   3907.205202  19993.222683  16870.013422    198.751527                    
V 23 -10699.869164  18766.136488 -20173.796722     -0.037406                    
P 25 -18207.044011 -18780.572557   4769.506540     34.879548                    
V 25  -1697.151186  -6334.178509 -31130.512477      0.005470                    
P 26  12535.181604 -23177.951660    -88.111754   -383.738658                    
V 26   1823.351219   1720.817271  32497.821373      0.101465                    
P 27   2937.477422 -14767.174562 -21206.817105    395.031405                    
V 27  28199.967785  -3489.649724   6636.046057      0.040640                    
P 28  18117.239062   5127.954190 -18270.638929    151.123970                    
V 28  12347.098789  20877.437325  17366.024531      0.039786                    
P 29  -9126.221624 -14040.419936  20690.930723    319.881235                    
V 29  12264.083233 -23061.994086 -10227.334784      0.038869                    
P 30 -12814.155611   8175.724219  21421.653074   -217.343120                    
V 30 -18606.389758 -21007.690555  -3058.503476     -0.214282                    
P 31 -24664.234331   7247.446835   7355.210124    249.335220                    
V 31  -9138.215188   -990.148137 -30210.622128      0.040263                    
P 32   5574.618994  23812.206383 -10722.778316   -450.808443                    
V 32  -9210.141556 -10522.028057 -27144.243204     -0.039825                    
EOF
